STARLINK-30069          
1 56834U 23079M   26067.48212902 -.00002416  00000+0 -80472-4 0  9995
2 56834  42.9986 110.4464 0000469 272.6695  87.4103 15.26726881152740
STARLINK-35868          
1 66579U 25268Y   26068.18552235  .00027892  00000+0  10189-2 0  9997
2 66579  43.0033 349.8208 0003031 249.1192 110.9336 15.27589789 17885
